start=new Date('2022-07-28T00:00:00.000Z').valueOf();
sats=[{"COUNTRY_CODE":"US","OBJECT_TYPE":"PAYLOAD","CLASSIFICATION_TYPE":"U","PERIAPSIS":"546.315","OBJECT_NAME":"STARLINK-2523","INCLINATION":"53.0533","APOAPSIS":"548.174","FILE":"3523323","TIME_SYSTEM":"UTC","MEAN_MOTION_DDOT":"0.0000000000000","ECCENTRICITY":"0.00013420","TLE_LINE2":"2 48306  53.0533 260.9950 0001342  66.8393 293.2738 15.06389917 69095","EPHEMERIS_TYPE":"0","MEAN_ANOMALY":"293.2738","LAUNCH_DATE":"2021-04-29","CENTER_NAME":"EARTH","MEAN_MOTION":"15.06389917","RCS_SIZE":"LARGE","ARG_OF_PERICENTER":"66.8393","TLE_LINE1":"1 48306U 21036AG  22208.87396172  .00000134  00000-0  27877-4 0  9993","PERIOD":"95.593","SITE":"AFETR","EPOCH":"2022-07-27T20:58:30.292608","MEAN_MOTION_DOT":"0.00000134","OBJECT_ID":"2021-036AG","REV_AT_EPOCH":"6909","MEAN_ELEMENT_THEORY":"SGP4","BSTAR":"0.00002787700000","DECAY_DATE":null,"RA_OF_ASC_NODE":"260.9950","SEMIMAJOR_AXIS":"6925.379","ELEMENT_SET_NO":"999","REF_FRAME":"TEME","GP_ID":"208998715","NORAD_CAT_ID":"48306"},{"TLE_LINE1":"1 48307U 21036AH  22208.87027145  .00002943  00000-0  21637-3 0  9992","PERIOD":"95.592","RCS_SIZE":"LARGE","MEAN_MOTION":"15.06397228","ARG_OF_PERICENTER":"86.5901","RA_OF_ASC_NODE":"261.0189","SEMIMAJOR_AXIS":"6925.357","ELEMENT_SET_NO":"999","REF_FRAME":"TEME","NORAD_CAT_ID":"48307","GP_ID":"208999456","SITE":"AFETR","EPOCH":"2022-07-27T20:53:11.453280","MEAN_MOTION_DOT":"0.00002943","OBJECT_ID":"2021-036AH","REV_AT_EPOCH":"6909","BSTAR":"0.00021637000000","MEAN_ELEMENT_THEORY":"SGP4","DECAY_DATE":null,"INCLINATION":"53.0528","APOAPSIS":"548.102","FILE":"3523323","COUNTRY_CODE":"US","OBJECT_TYPE":"PAYLOAD","CLASSIFICATION_TYPE":"U","PERIAPSIS":"546.342","OBJECT_NAME":"STARLINK-2528","LAUNCH_DATE":"2021-04-29","CENTER_NAME":"EARTH","TIME_SYSTEM":"UTC","MEAN_MOTION_DDOT":"0.0000000000000","ECCENTRICITY":"0.00012710","TLE_LINE2":"2 48307  53.0528 261.0189 0001271  86.5901 273.5233 15.06397228 69096","EPHEMERIS_TYPE":"0","MEAN_ANOMALY":"273.5233"},{"COUNTRY_CODE":"US","CLASSIFICATION_TYPE":"U","OBJECT_TYPE":"PAYLOAD","PERIAPSIS":"546.042","OBJECT_NAME":"STARLINK-2532","INCLINATION":"53.0538","APOAPSIS":"548.412","FILE":"3523323","TIME_SYSTEM":"UTC","MEAN_MOTION_DDOT":"0.0000000000000","ECCENTRICITY":"0.00017110","TLE_LINE2":"2 48308  53.0538 261.0248 0001711  51.9782 308.1361 15.06395598 69091","EPHEMERIS_TYPE":"0","MEAN_ANOMALY":"308.1361","LAUNCH_DATE":"2021-04-29","CENTER_NAME":"EARTH","RCS_SIZE":"LARGE","ARG_OF_PERICENTER":"51.9782","MEAN_MOTION":"15.06395598","TLE_LINE1":"1 48308U 21036AJ  22208.86658074  .00001885  00000-0  14546-3 0  9998","PERIOD":"95.592","SITE":"AFETR","EPOCH":"2022-07-27T20:47:52.575936","MEAN_MOTION_DOT":"0.00001885","OBJECT_ID":"2021-036AJ","REV_AT_EPOCH":"6909","MEAN_ELEMENT_THEORY":"SGP4","BSTAR":"0.00014546000000","DECAY_DATE":null,"RA_OF_ASC_NODE":"261.0248","SEMIMAJOR_AXIS":"6925.362","REF_FRAME":"TEME","ELEMENT_SET_NO":"999","NORAD_CAT_ID":"48308","GP_ID":"208998206"},{"LAUNCH_DATE":"2021-04-29","CENTER_NAME":"EARTH","EPHEMERIS_TYPE":"0","MEAN_ANOMALY":"283.7371","TIME_SYSTEM":"UTC","MEAN_MOTION_DDOT":"0.0000000000000","ECCENTRICITY":"0.00011130","TLE_LINE2":"2 48309  53.0546 262.5429 0001113  76.3742 283.7371 15.06389501 69042","FILE":"3523109","INCLINATION":"53.0546","APOAPSIS":"548.017","OBJECT_NAME":"STARLINK-2517","COUNTRY_CODE":"US","OBJECT_TYPE":"PAYLOAD","CLASSIFICATION_TYPE":"U","PERIAPSIS":"546.475","GP_ID":"208967430","NORAD_CAT_ID":"48309","RA_OF_ASC_NODE":"262.5429","SEMIMAJOR_AXIS":"6925.381","REF_FRAME":"TEME","ELEMENT_SET_NO":"999","REV_AT_EPOCH":"6904","BSTAR":"0.00016122000000","MEAN_ELEMENT_THEORY":"SGP4","DECAY_DATE":null,"SITE":"AFETR","MEAN_MOTION_DOT":"0.00002120","EPOCH":"2022-07-27T12:44:53.246976","OBJECT_ID":"2021-036AK","PERIOD":"95.593","TLE_LINE1":"1 48309U 21036AK  22208.53117184  .00002120  00000-0  16122-3 0  9990","RCS_SIZE":"LARGE","ARG_OF_PERICENTER":"76.3742","MEAN_MOTION":"15.06389501"},{"MEAN_MOTION":"15.06393152","RCS_SIZE":"LARGE","ARG_OF_PERICENTER":"75.3148","TLE_LINE1":"1 48310U 21036AL  22208.85921742  .00002045  00000-0  15614-3 0  9991","PERIOD":"95.593","MEAN_MOTION_DOT":"0.00002045","OBJECT_ID":"2021-036AL","EPOCH":"2022-07-27T20:37:16.385088","SITE":"AFETR","DECAY_DATE":null,"REV_AT_EPOCH":"6909","BSTAR":"0.00015614000000","MEAN_ELEMENT_THEORY":"SGP4","ELEMENT_SET_NO":"999","REF_FRAME":"TEME","RA_OF_ASC_NODE":"261.0656","SEMIMAJOR_AXIS":"6925.370","NORAD_CAT_ID":"48310","GP_ID":"208999208","COUNTRY_CODE":"US","CLASSIFICATION_TYPE":"U","OBJECT_TYPE":"PAYLOAD","PERIAPSIS":"546.365","OBJECT_NAME":"STARLINK-2536","APOAPSIS":"548.104","INCLINATION":"53.0553","FILE":"3523323","TLE_LINE2":"2 48310  53.0553 261.0656 0001255  75.3148 284.7980 15.06393152 69093","ECCENTRICITY":"0.00012550","TIME_SYSTEM":"UTC","MEAN_MOTION_DDOT":"0.0000000000000","MEAN_ANOMALY":"284.7980","EPHEMERIS_TYPE":"0","CENTER_NAME":"EARTH","LAUNCH_DATE":"2021-04-29"},{"CENTER_NAME":"EARTH","LAUNCH_DATE":"2021-04-29","MEAN_ANOMALY":"270.7459","EPHEMERIS_TYPE":"0","TLE_LINE2":"2 48311  53.0536 261.0731 0001196  89.3667 270.7459 15.06393447 69097","ECCENTRICITY":"0.00011960","TIME_SYSTEM":"UTC","MEAN_MOTION_DDOT":"0.0000000000000","FILE":"3523323","APOAPSIS":"548.062","INCLINATION":"53.0536","OBJECT_NAME":"STARLINK-2534","COUNTRY_CODE":"US","OBJECT_TYPE":"PAYLOAD","CLASSIFICATION_TYPE":"U","PERIAPSIS":"546.405","NORAD_CAT_ID":"48311","GP_ID":"208998964","REF_FRAME":"TEME","ELEMENT_SET_NO":"999","RA_OF_ASC_NODE":"261.0731","SEMIMAJOR_AXIS":"6925.369","DECAY_DATE":null,"REV_AT_EPOCH":"6909","BSTAR":"0.00014180000000","MEAN_ELEMENT_THEORY":"SGP4","MEAN_MOTION_DOT":"0.00001831","EPOCH":"2022-07-27T20:31:57.886176","OBJECT_ID":"2021-036AM","SITE":"AFETR","PERIOD":"95.593","TLE_LINE1":"1 48311U 21036AM  22208.85553109  .00001831  00000-0  14180-3 0  9999","ARG_OF_PERICENTER":"89.3667","RCS_SIZE":"LARGE","MEAN_MOTION":"15.06393447"},{"FILE":"3523323","INCLINATION":"53.0535","APOAPSIS":"548.121","OBJECT_NAME":"STARLINK-2061","COUNTRY_CODE":"US","CLASSIFICATION_TYPE":"U","OBJECT_TYPE":"PAYLOAD","PERIAPSIS":"546.293","LAUNCH_DATE":"2021-04-29","CENTER_NAME":"EARTH","EPHEMERIS_TYPE":"0","MEAN_ANOMALY":"296.9679","TIME_SYSTEM":"UTC","MEAN_MOTION_DDOT":"0.0000000000000","ECCENTRICITY":"0.00013200","TLE_LINE2":"2 48312  53.0535 261.1006 0001320  63.1444 296.9679 15.06402146 69096","PERIOD":"95.592","TLE_LINE1":"1 48312U 21036AN  22208.85182557  .00001253  00000-0  10299-3 0  9990","ARG_OF_PERICENTER":"63.1444","RCS_SIZE":"LARGE","MEAN_MOTION":"15.06402146","NORAD_CAT_ID":"48312","GP_ID":"208997714","RA_OF_ASC_NODE":"261.1006","SEMIMAJOR_AXIS":"6925.342","ELEMENT_SET_NO":"999","REF_FRAME":"TEME","REV_AT_EPOCH":"6909","MEAN_ELEMENT_THEORY":"SGP4","BSTAR":"0.00010299000000","DECAY_DATE":null,"SITE":"AFETR","EPOCH":"2022-07-27T20:26:37.729248","MEAN_MOTION_DOT":"0.00001253","OBJECT_ID":"2021-036AN"},{"ARG_OF_PERICENTER":"74.9828","RCS_SIZE":"LARGE","MEAN_MOTION":"15.06399847","TLE_LINE1":"1 48313U 21036AP  22208.84814678  .00000522  00000-0  53967-4 0  9994","PERIOD":"95.592","SITE":"AFETR","MEAN_MOTION_DOT":"0.00000522","OBJECT_ID":"2021-036AP","EPOCH":"2022-07-27T20:21:19.881792","BSTAR":"0.00005396700000","MEAN_ELEMENT_THEORY":"SGP4","REV_AT_EPOCH":"6908","DECAY_DATE":null,"SEMIMAJOR_AXIS":"6925.349","RA_OF_ASC_NODE":"261.1014","ELEMENT_SET_NO":"999","REF_FRAME":"TEME","GP_ID":"208998457","NORAD_CAT_ID":"48313","PERIAPSIS":"546.244","OBJECT_TYPE":"PAYLOAD","COUNTRY_CODE":"US","CLASSIFICATION_TYPE":"U","OBJECT_NAME":"STARLINK-2541","INCLINATION":"53.0554","APOAPSIS":"548.184","FILE":"3523323","MEAN_MOTION_DDOT":"0.0000000000000","TIME_SYSTEM":"UTC","TLE_LINE2":"2 48313  53.0554 261.1014 0001400  74.9828 285.1316 15.06399847 69082","ECCENTRICITY":"0.00014000","EPHEMERIS_TYPE":"0","MEAN_ANOMALY":"285.1316","LAUNCH_DATE":"2021-04-29","CENTER_NAME":"EARTH"},{"LAUNCH_DATE":"2021-04-29","CENTER_NAME":"EARTH","EPHEMERIS_TYPE":"0","MEAN_ANOMALY":"282.7194","TIME_SYSTEM":"UTC","MEAN_MOTION_DDOT":"0.0000000000000","ECCENTRICITY":"0.00011800","TLE_LINE2":"2 48314  53.0536 261.1370 0001180  77.3927 282.7194 15.06412572 69088","FILE":"3523323","INCLINATION":"53.0536","APOAPSIS":"547.992","OBJECT_NAME":"STARLINK-2549","CLASSIFICATION_TYPE":"U","COUNTRY_CODE":"US","OBJECT_TYPE":"PAYLOAD","PERIAPSIS":"546.358","GP_ID":"208998716","NORAD_CAT_ID":"48314","RA_OF_ASC_NODE":"261.1370","SEMIMAJOR_AXIS":"6925.310","ELEMENT_SET_NO":"999","REF_FRAME":"TEME","REV_AT_EPOCH":"6908","MEAN_ELEMENT_THEORY":"SGP4","BSTAR":"0.00024869000000","DECAY_DATE":null,"SITE":"AFETR","MEAN_MOTION_DOT":"0.00003426","EPOCH":"2022-07-27T20:16:00.891264","OBJECT_ID":"2021-036AQ","PERIOD":"95.591","TLE_LINE1":"1 48314U 21036AQ  22208.84445476  .00003426  00000-0  24869-3 0  9995","ARG_OF_PERICENTER":"77.3927","RCS_SIZE":"LARGE","MEAN_MOTION":"15.06412572"},{"FILE":"3523323","APOAPSIS":"548.198","INCLINATION":"53.0527","OBJECT_NAME":"STARLINK-2506","OBJECT_TYPE":"PAYLOAD","COUNTRY_CODE":"US","CLASSIFICATION_TYPE":"U","PERIAPSIS":"546.205","CENTER_NAME":"EARTH","LAUNCH_DATE":"2021-04-29","MEAN_ANOMALY":"282.6206","EPHEMERIS_TYPE":"0","ECCENTRICITY":"0.00014390","TLE_LINE2":"2 48315  53.0527 261.1317 0001439  77.4944 282.6206 15.06404040 69081","TIME_SYSTEM":"UTC","MEAN_MOTION_DDOT":"0.0000000000000","PERIOD":"95.592","TLE_LINE1":"1 48315U 21036AR  22208.83983281  .00003018  00000-0  22139-3 0  9991","RCS_SIZE":"LARGE","MEAN_MOTION":"15.06404040","ARG_OF_PERICENTER":"77.4944","NORAD_CAT_ID":"48315","GP_ID":"208999457","REF_FRAME":"TEME","ELEMENT_SET_NO":"999","RA_OF_ASC_NODE":"261.1317","SEMIMAJOR_AXIS":"6925.336","DECAY_DATE":null,"REV_AT_EPOCH":"6908","MEAN_ELEMENT_THEORY":"SGP4","BSTAR":"0.00022139000000","MEAN_MOTION_DOT":"0.00003018","EPOCH":"2022-07-27T20:09:21.554784","OBJECT_ID":"2021-036AR","SITE":"AFETR"}];
